IRIDIUM 116             
1 43072U 17083C   25005.76499019  .00000033  00000+0  48106-5 0  9991
2 43072  86.3990 182.4354 0002105  95.9176 264.2260 14.34216664368573
IRIDIUM 130             
1 43073U 17083D   25005.73327622 -.00000011  00000+0 -10907-4 0  9994
2 43073  86.4004 182.6724 0001768  96.9880 263.1517 14.34217357368518
IRIDIUM 151             
1 43074U 17083E   25005.49860033 -.00000125  00000+0 -51592-4 0  9997
2 43074  86.3997 182.5924 0002037  92.2075 267.9354 14.34216684368507
IRIDIUM 134             
1 43075U 17083F   25005.39712022 -.00000001  00000+0 -75221-5 0  9990
2 43075  86.4001 182.6359 0001825  96.4580 263.6824 14.34216779368453
IRIDIUM 137             
1 43076U 17083G   25005.47957118  .00000163  00000+0  51112-4 0  9996
2 43076  86.3994 182.6831 0002465  96.3937 263.7539 14.34219113368533
IRIDIUM 141             
1 43077U 17083H   25005.75230382 -.00000016  00000+0 -12875-4 0  9997
2 43077  86.3995 182.4303 0001635  84.6718 275.4664 14.34217339368573
IRIDIUM 153             
1 43078U 17083J   25005.42540802  .00000294  00000+0  97992-4 0  9992
2 43078  86.3999 151.0934 0001551  73.8474 286.2893 14.34210901369636
IRIDIUM 131             
1 43079U 17083K   25005.73962112  .00000288  00000+0  95731-4 0  9991
2 43079  86.3997 182.5860 0002069  87.1964 272.9468 14.34217574368507
